NORAD_CAT_ID,OBJECT_NAME,OBJECT_TYPE,EPOCH,MEAN_MOTION,ECCENTRICITY,INCLINATION,RA_OF_ASC_NODE,ARG_OF_PERICENTER,MEAN_ANOMALY,BSTAR,MEAN_MOTION_DOT,MEAN_MOTION_DDOT,TLE_LINE0,TLE_LINE1,TLE_LINE2,SEMIMAJOR_AXIS,PERIOD,APOGEE,PERIGEE,DECAYED
49143.0,STARLINK-3109,PAYLOAD,2024-05-14 11:33:00,14.98339069,0.0003189,70.0003,149.1654,276.0894,83.9901,0.00086539,0.0001025,0.0,0 STARLINK-3109,1 49143U 21082P   24135.48125713  .00010250  00000-0  86539-3 0  9992,2 49143  70.0003 149.1654 0003189 276.0894  83.9901 14.98339069146979,6950.165,96.106,574.246,569.813,0.0
49143.0,STARLINK-3109,PAYLOAD,2024-05-14 17:57:32,14.98344485,0.0003193,70.0004,148.492,275.8027,84.2768,0.00074856,8.853e-05,0.0,0 STARLINK-3109,1 49143U 21082P   24135.74829362  .00008853  00000-0  74856-3 0  9997,2 49143  70.0004 148.4920 0003193 275.8027  84.2768 14.98344485148131,6950.148,96.106,574.232,569.794,0.0
49143.0,STARLINK-3109,PAYLOAD,2024-05-15 09:58:52,14.98357046,0.0003217,70.0003,146.8088,274.5943,85.4849,0.0005577,6.572e-05,0.0,0 STARLINK-3109,1 49143U 21082P   24136.41588182  .00006572  00000-0  55770-3 0  9994,2 49143  70.0003 146.8088 0003217 274.5943  85.4849 14.98357046148238,6950.109,96.105,574.21,569.738,0.0
49143.0,STARLINK-3109,PAYLOAD,2024-05-16 05:12:28,14.98350354,0.0003197,70.0002,144.7888,273.5619,86.5174,0.00017462,1.992e-05,0.0,0 STARLINK-3109,1 49143U 21082P   24137.21699363  .00001992  00000-0  17462-3 0  9994,2 49143  70.0002 144.7888 0003197 273.5619  86.5174 14.98350354147235,6950.13,96.106,574.217,569.773,0.0
49143.0,STARLINK-3109,PAYLOAD,2024-05-16 10:00:52,14.98350709,0.000317,69.9999,144.2842,271.5888,88.4908,0.00016953,1.931e-05,0.0,0 STARLINK-3109,1 49143U 21082P   24137.41727126  .00001931  00000-0  16953-3 0  9992,2 49143  69.9999 144.2842 0003170 271.5888  88.4908 14.98350709148386,6950.129,96.106,574.197,569.791,0.0
49143.0,STARLINK-3109,PAYLOAD,2024-05-16 18:01:32,14.98347483,0.0003587,69.9999,143.4425,270.1557,89.9191,7.0754e-05,7.52e-06,0.0,0 STARLINK-3109,1 49143U 21082P   24137.75106795  .00000752  00000-0  70754-4 0  9992,2 49143  69.9999 143.4425 0003587 270.1557  89.9191 14.98347483148435,6950.139,96.106,574.497,569.511,0.0
49143.0,STARLINK-3109,PAYLOAD,2024-05-17 05:14:29,14.98339652,0.0003087,69.9988,142.2645,270.9318,89.1487,-6.9253e-05,-9.19e-06,0.0,0 STARLINK-3109,1 49143U 21082P   24138.21839386 -.00000919  00000-0 -69253-4 0  9992,2 49143  69.9988 142.2645 0003087 270.9318  89.1487 14.98339652147384,6950.163,96.106,574.174,569.883,0.0
49143.0,STARLINK-3109,PAYLOAD,2024-05-17 10:02:53,14.98339885,0.0003023,69.9987,141.7585,268.6891,91.3922,-5.6747e-05,-7.7e-06,0.0,0 STARLINK-3109,1 49143U 21082P   24138.41867130 -.00000770  00000-0 -56747-4 0  9991,2 49143  69.9987 141.7585 0003023 268.6891  91.3922 14.98339885148535,6950.162,96.106,574.128,569.926,0.0
49143.0,STARLINK-3109,PAYLOAD,2024-05-17 18:03:33,14.98337259,0.0003028,69.9988,140.9167,268.4356,91.6456,-5.99e-05,-8.08e-06,0.0,0 STARLINK-3109,1 49143U 21082P   24138.75247088 -.00000808  00000-0 -59900-4 0  9998,2 49143  69.9988 140.9167 0003028 268.4356  91.6456 14.98337259148585,6950.17,96.107,574.14,569.931,0.0
49143.0,STARLINK-3109,PAYLOAD,2024-05-18 10:04:53,14.98336028,0.0003037,69.9987,139.2339,269.6492,90.4319,-2.4022e-05,-3.8e-06,0.0,0 STARLINK-3109,1 49143U 21082P   24139.42006804 -.00000380  00000-0 -24022-4 0  9994,2 49143  69.9987 139.2339 0003037 269.6492  90.4319 14.98336028147565,6950.174,96.107,574.15,569.928,0.0
49143.0,STARLINK-3109,PAYLOAD,2024-05-19 10:06:54,14.98332464,0.000301,69.9988,136.7091,270.1762,89.9052,5.7247e-05,5.9e-06,0.0,0 STARLINK-3109,1 49143U 21082P   24140.42146659  .00000590  00000-0  57247-4 0  9995,2 49143  69.9988 136.7091 0003010 270.1762  89.9052 14.98332464148839,6950.185,96.107,574.142,569.958,0.0
49143.0,STARLINK-3109,PAYLOAD,2024-05-20 10:08:55,14.98328523,0.0002929,69.999,134.1848,269.0537,91.0286,1.5685e-05,9.4e-07,0.0,0 STARLINK-3109,1 49143U 21082P   24141.42287032  .00000094  00000-0  15685-4 0  9996,2 49143  69.9990 134.1848 0002929 269.0537  91.0286 14.98328523147865,6950.197,96.107,574.098,570.027,0.0
49143.0,STARLINK-3109,PAYLOAD,2024-05-21 08:34:48,14.98330596,0.0002917,69.999,131.8283,267.4896,92.5929,1.8378e-05,1.26e-06,0.0,0 STARLINK-3109,1 49143U 21082P   24142.35750864  .00000126  00000-0  18378-4 0  9995,2 49143  69.9990 131.8283 0002917 267.4896  92.5929 14.98330596149123,6950.191,96.107,574.083,570.029,0.0
49143.0,STARLINK-3109,PAYLOAD,2024-05-21 23:00:01,14.98328717,0.0002962,69.9989,130.3132,268.4519,91.6301,4.9976e-05,5.03e-06,0.0,0 STARLINK-3109,1 49143U 21082P   24142.95834886  .00000503  00000-0  49976-4 0  9995,2 49143  69.9989 130.3132 0002962 268.4519  91.6301 14.98328717149217,6950.197,96.107,574.121,570.003,0.0
49143.0,STARLINK-3109,PAYLOAD,2024-05-22 05:24:33,14.9832849,0.0002963,69.9989,129.6399,265.5237,94.5583,4.2913e-05,4.19e-06,0.0,0 STARLINK-3109,1 49143U 21082P   24143.22538917  .00000419  00000-0  42913-4 0  9992,2 49143  69.9989 129.6399 0002963 265.5237  94.5583 14.98328490148131,6950.198,96.107,574.122,570.003,0.0
49143.0,STARLINK-3109,PAYLOAD,2024-05-22 08:36:49,14.98330198,0.000299,69.9988,129.303,267.3026,92.7791,5.7037e-05,5.88e-06,0.0,0 STARLINK-3109,1 49143U 21082P   24143.35890779  .00000588  00000-0  57037-4 0  9993,2 49143  69.9988 129.3030 0002990 267.3026  92.7791 14.98330198149270,6950.192,96.107,574.135,569.979,0.0
49143.0,STARLINK-3109,PAYLOAD,2024-05-23 05:26:34,14.98327416,0.0002974,69.9989,127.1148,265.3178,94.7641,-3.401e-06,-1.34e-06,0.0,0 STARLINK-3109,1 49143U 21082P   24144.22679145 -.00000134  00000-0 -34010-5 0  9998,2 49143  69.9989 127.1148 0002974 265.3178  94.7641 14.98327416148280,6950.201,96.107,574.133,569.999,0.0
49143.0,STARLINK-3109,PAYLOAD,2024-05-23 08:38:50,14.9832809,0.0002968,69.999,126.7783,265.3364,94.7456,3.1763e-06,-5.5e-07,0.0,0 STARLINK-3109,1 49143U 21082P   24144.36031097 -.00000055  00000-0  31763-5 0  9994,2 49143  69.9990 126.7783 0002968 265.3364  94.7456 14.98328090149422,6950.199,96.107,574.127,570.001,0.0
49143.0,STARLINK-3109,PAYLOAD,2024-05-24 03:52:27,14.98335047,0.0003044,69.9989,124.7582,266.0939,93.9872,6.5996e-05,6.95e-06,0.0,0 STARLINK-3109,1 49143U 21082P   24145.16142388  .00000695  00000-0  65996-4 0  9992,2 49143  69.9989 124.7582 0003044 266.0939  93.9872 14.98335047148429,6950.177,96.107,574.158,569.927,0.0
49143.0,STARLINK-3109,PAYLOAD,2024-05-24 08:40:50,14.98338275,0.0003019,69.9989,124.2535,266.0986,93.9828,0.00010018,1.103e-05,0.0,0 STARLINK-3109,1 49143U 21082P   24145.36170019  .00001103  00000-0  10018-3 0  9995,2 49143  69.9989 124.2535 0003019 266.0986  93.9828 14.98338275149570,6950.167,96.106,574.131,569.934,0.0
49143.0,STARLINK-3109,PAYLOAD,2024-05-25 05:30:36,14.98327768,0.0002774,69.9995,122.067,257.061,103.024,3.9489e-05,3.78e-06,0.0,0 STARLINK-3109,1 49143U 21082P   24146.22958752  .00000378  00000-0  39489-4 0  9996,2 49143  69.9995 122.0670 0002774 257.0610 103.0240 14.98327768148580,6950.2,96.107,573.993,570.137,0.0
49143.0,STARLINK-3109,PAYLOAD,2024-05-25 08:42:52,14.98327593,0.000277,69.9995,121.73,258.2395,101.8454,3.6035e-05,3.37e-06,0.0,0 STARLINK-3109,1 49143U 21082P   24146.36310788  .00000337  00000-0  36035-4 0  9991,2 49143  69.9995 121.7300 0002770 258.2395 101.8454 14.98327593149721,6950.2,96.107,573.991,570.14,0.0
49143.0,STARLINK-3109,PAYLOAD,2024-05-26 08:44:53,14.98333317,0.0002832,69.999,119.2035,269.3801,90.7034,-1.7698e-05,-3.04e-06,0.0,0 STARLINK-3109,1 49143U 21082P   24147.36450531 -.00000304  00000-0 -17698-4 0  9993,2 49143  69.9990 119.2035 0002832 269.3801  90.7034 14.98333317148750,6950.183,96.107,574.016,570.079,0.0
49143.0,STARLINK-3109,PAYLOAD,2024-05-26 23:10:05,14.98329084,0.0002768,69.999,117.6884,267.5458,92.5384,3.7305e-05,3.52e-06,0.0,0 STARLINK-3109,1 49143U 21082P   24147.96534602  .00000352  00000-0  37305-4 0  9999,2 49143  69.9990 117.6884 0002768 267.5458  92.5384 14.98329084149968,6950.196,96.107,573.985,570.137,0.0
49143.0,STARLINK-3109,PAYLOAD,2024-05-27 08:46:54,14.98330232,0.0002755,69.9991,116.6784,267.3303,92.7541,4.6602e-05,4.63e-06,0.0,0 STARLINK-3109,1 49143U 21082P   24148.36590513  .00000463  00000-0  46602-4 0  9990,2 49143  69.9991 116.6784 0002755 267.3303  92.7541 14.98330232148907,6950.192,96.107,573.972,570.142,0.0
49143.0,STARLINK-3109,PAYLOAD,2024-05-28 07:12:47,14.98327301,0.0002689,69.9994,114.3225,260.1686,99.917,1.8241e-06,-7.1e-07,0.0,0 STARLINK-3109,1 49143U 21082P   24149.30054861 -.00000071  00000-0  18241-5 0  9991,2 49143  69.9994 114.3225 0002689 260.1686  99.9170 14.98327301150167,6950.201,96.107,573.935,570.197,0.0
49143.0,STARLINK-3109,PAYLOAD,2024-05-28 21:37:59,14.98331396,0.0002733,69.9993,112.8073,262.1522,97.9326,2.3236e-05,1.84e-06,0.0,0 STARLINK-3109,1 49143U 21082P   24149.90138553  .00000184  00000-0  23236-4 0  9991,2 49143  69.9993 112.8073 0002733 262.1522  97.9326 14.98331396149136,6950.189,96.107,573.953,570.154,0.0
49143.0,STARLINK-3109,PAYLOAD,2024-05-29 07:14:48,14.98331776,0.0002781,69.9993,111.7971,265.569,94.5152,2.2927e-05,1.81e-06,0.0,0 STARLINK-3109,1 49143U 21082P   24150.30194514  .00000181  00000-0  22927-4 0  9999,2 49143  69.9993 111.7971 0002781 265.5690  94.5152 14.98331776150311,6950.187,96.107,573.985,570.12,0.0
49143.0,STARLINK-3109,PAYLOAD,2024-05-29 21:40:00,14.98330774,0.0002856,69.9993,110.2823,266.6003,93.483,4.8912e-05,4.91e-06,0.0,0 STARLINK-3109,1 49143U 21082P   24150.90278493  .00000491  00000-0  48912-4 0  9990,2 49143  69.9993 110.2823 0002856 266.6003  93.4830 14.98330774149286,6950.19,96.107,574.04,570.071,0.0
49143.0,STARLINK-3109,PAYLOAD,2024-05-30 07:16:48,14.98332153,0.0002823,69.9993,109.2727,265.7269,94.3567,6.2096e-05,6.48e-06,0.0,0 STARLINK-3109,1 49143U 21082P   24151.30334345  .00000648  00000-0  62096-4 0  9997,2 49143  69.9993 109.2727 0002823 265.7269  94.3567 14.98332153150467,6950.186,96.107,574.013,570.089,0.0
